CCSDS_OMM_VERS = 2.0
CREATION_DATE  = 
ORIGINATOR     = 

OBJECT_NAME    = STARLINK-36874
OBJECT_ID      = 2026-038W
CENTER_NAME    = EARTH
REF_FRAME      = TEME
TIME_SYSTEM    = UTC
MEAN_ELEMENT_THEORY = SGP/SGP4

EPOCH          = 2026-03-13T14:00:01.000224
MEAN_MOTION    = 15.76026356
ECCENTRICITY   = .00011307
INCLINATION    = 97.2737
RA_OF_ASC_NODE = 83.1293
ARG_OF_PERICENTER = 98.3227
MEAN_ANOMALY   = 253.0836

EPHEMERIS_TYPE = 0
CLASSIFICATION_TYPE = U
NORAD_CAT_ID   = 67981
ELEMENT_SET_NO = 999
REV_AT_EPOCH   = 382
BSTAR          = -.83948956E-2
MEAN_MOTION_DOT = -.115793E-1
MEAN_MOTION_DDOT = 0

CCSDS_OMM_VERS = 2.0
CREATION_DATE  = 
ORIGINATOR     = 

OBJECT_NAME    = STARLINK-36879
OBJECT_ID      = 2026-038X
CENTER_NAME    = EARTH
REF_FRAME      = TEME
TIME_SYSTEM    = UTC
MEAN_ELEMENT_THEORY = SGP/SGP4

EPOCH          = 2026-03-13T14:00:01.000224
MEAN_MOTION    = 15.76605907
ECCENTRICITY   = .00013551
INCLINATION    = 97.2732
RA_OF_ASC_NODE = 83.1320
ARG_OF_PERICENTER = 94.3033
MEAN_ANOMALY   = 264.6737

EPHEMERIS_TYPE = 0
CLASSIFICATION_TYPE = U
NORAD_CAT_ID   = 67982
ELEMENT_SET_NO = 999
REV_AT_EPOCH   = 382
BSTAR          = -.12590492E-1
MEAN_MOTION_DOT = -.1760639E-1
MEAN_MOTION_DDOT = 0

CCSDS_OMM_VERS = 2.0
CREATION_DATE  = 
ORIGINATOR     = 

OBJECT_NAME    = STARLINK-36867
OBJECT_ID      = 2026-038Y
CENTER_NAME    = EARTH
REF_FRAME      = TEME
TIME_SYSTEM    = UTC
MEAN_ELEMENT_THEORY = SGP/SGP4

EPOCH          = 2026-03-13T14:00:01.000224
MEAN_MOTION    = 15.77535168
ECCENTRICITY   = .0001221
INCLINATION    = 97.2720
RA_OF_ASC_NODE = 83.1390
ARG_OF_PERICENTER = 112.1655
MEAN_ANOMALY   = 261.7637

EPHEMERIS_TYPE = 0
CLASSIFICATION_TYPE = U
NORAD_CAT_ID   = 67983
ELEMENT_SET_NO = 999
REV_AT_EPOCH   = 382
BSTAR          = -.15981732E-1
MEAN_MOTION_DOT = -.2294769E-1
MEAN_MOTION_DDOT = 0

CCSDS_OMM_VERS = 2.0
CREATION_DATE  = 
ORIGINATOR     = 

OBJECT_NAME    = STARLINK-36266
OBJECT_ID      = 2026-038Z
CENTER_NAME    = EARTH
REF_FRAME      = TEME
TIME_SYSTEM    = UTC
MEAN_ELEMENT_THEORY = SGP/SGP4

EPOCH          = 2026-03-13T14:00:01.000224
MEAN_MOTION    = 15.76937238
ECCENTRICITY   = .00012656
INCLINATION    = 97.2731
RA_OF_ASC_NODE = 83.1369
ARG_OF_PERICENTER = 124.2521
MEAN_ANOMALY   = 242.4591

EPHEMERIS_TYPE = 0
CLASSIFICATION_TYPE = U
NORAD_CAT_ID   = 67984
ELEMENT_SET_NO = 999
REV_AT_EPOCH   = 379
BSTAR          = -.15017683E-1
MEAN_MOTION_DOT = -.2123778E-1
MEAN_MOTION_DDOT = 0

CCSDS_OMM_VERS = 2.0
CREATION_DATE  = 
ORIGINATOR     = 

OBJECT_NAME    = STARLINK-36802
OBJECT_ID      = 2026-038AA
CENTER_NAME    = EARTH
REF_FRAME      = TEME
TIME_SYSTEM    = UTC
MEAN_ELEMENT_THEORY = SGP/SGP4

EPOCH          = 2026-03-13T14:00:01.000224
MEAN_MOTION    = 15.77679026
ECCENTRICITY   = .00012564
INCLINATION    = 97.2714
RA_OF_ASC_NODE = 83.1417
ARG_OF_PERICENTER = 96.5709
MEAN_ANOMALY   = 283.1070

EPHEMERIS_TYPE = 0
CLASSIFICATION_TYPE = U
NORAD_CAT_ID   = 67985
ELEMENT_SET_NO = 999
REV_AT_EPOCH   = 382
BSTAR          = -.15540627E-1
MEAN_MOTION_DOT = -.2252401E-1
MEAN_MOTION_DDOT = 0

CCSDS_OMM_VERS = 2.0
CREATION_DATE  = 
ORIGINATOR     = 

OBJECT_NAME    = STARLINK-36535
OBJECT_ID      = 2026-039A
CENTER_NAME    = EARTH
REF_FRAME      = TEME
TIME_SYSTEM    = UTC
MEAN_ELEMENT_THEORY = SGP/SGP4

EPOCH          = 2026-03-13T08:14:38.469984
MEAN_MOTION    = 15.82144190
ECCENTRICITY   = .00024508
INCLINATION    = 42.9987
RA_OF_ASC_NODE = 32.5458
ARG_OF_PERICENTER = 249.6833
MEAN_ANOMALY   = 110.3776

EPHEMERIS_TYPE = 0
CLASSIFICATION_TYPE = U
NORAD_CAT_ID   = 67986
ELEMENT_SET_NO = 999
REV_AT_EPOCH   = 221
BSTAR          = .15166309E-2
MEAN_MOTION_DOT = .333423E-2
MEAN_MOTION_DDOT = 0

CCSDS_OMM_VERS = 2.0
CREATION_DATE  = 
ORIGINATOR     = 

OBJECT_NAME    = STARLINK-36744
OBJECT_ID      = 2026-039B
CENTER_NAME    = EARTH
REF_FRAME      = TEME
TIME_SYSTEM    = UTC
MEAN_ELEMENT_THEORY = SGP/SGP4

EPOCH          = 2026-03-13T08:13:33.750336
MEAN_MOTION    = 15.82169129
ECCENTRICITY   = .00024619
INCLINATION    = 42.9988
RA_OF_ASC_NODE = 32.5398
ARG_OF_PERICENTER = 225.2305
MEAN_ANOMALY   = 134.8367

EPHEMERIS_TYPE = 0
CLASSIFICATION_TYPE = U
NORAD_CAT_ID   = 67987
ELEMENT_SET_NO = 999
REV_AT_EPOCH   = 221
BSTAR          = .18865557E-2
MEAN_MOTION_DOT = .419567E-2
MEAN_MOTION_DDOT = 0

CCSDS_OMM_VERS = 2.0
CREATION_DATE  = 
ORIGINATOR     = 

OBJECT_NAME    = STARLINK-36734
OBJECT_ID      = 2026-039C
CENTER_NAME    = EARTH
REF_FRAME      = TEME
TIME_SYSTEM    = UTC
MEAN_ELEMENT_THEORY = SGP/SGP4

EPOCH          = 2026-03-13T14:00:01.000224
MEAN_MOTION    = 15.69523785
ECCENTRICITY   = .00013497
INCLINATION    = 42.9996
RA_OF_ASC_NODE = 31.2219
ARG_OF_PERICENTER = 253.8351
MEAN_ANOMALY   = 334.8762

EPHEMERIS_TYPE = 0
CLASSIFICATION_TYPE = U
NORAD_CAT_ID   = 67988
ELEMENT_SET_NO = 999
REV_AT_EPOCH   = 350
BSTAR          = -.18448712E-1
MEAN_MOTION_DOT = -.1977825E-1
MEAN_MOTION_DDOT = 0

CCSDS_OMM_VERS = 2.0
CREATION_DATE  = 
ORIGINATOR     = 

OBJECT_NAME    = STARLINK-36957
OBJECT_ID      = 2026-039D
CENTER_NAME    = EARTH
REF_FRAME      = TEME
TIME_SYSTEM    = UTC
MEAN_ELEMENT_THEORY = SGP/SGP4

EPOCH          = 2026-03-13T14:00:01.000224
MEAN_MOTION    = 15.81980286
ECCENTRICITY   = .00017774
INCLINATION    = 42.9995
RA_OF_ASC_NODE = 31.0418
ARG_OF_PERICENTER = 254.5765
MEAN_ANOMALY   = 46.0020

EPHEMERIS_TYPE = 0
CLASSIFICATION_TYPE = U
NORAD_CAT_ID   = 67989
ELEMENT_SET_NO = 999
REV_AT_EPOCH   = 350
BSTAR          = -.17110376E-4
MEAN_MOTION_DOT = -.4128E-4
MEAN_MOTION_DDOT = 0

CCSDS_OMM_VERS = 2.0
CREATION_DATE  = 
ORIGINATOR     = 

OBJECT_NAME    = STARLINK-36951
OBJECT_ID      = 2026-039E
CENTER_NAME    = EARTH
REF_FRAME      = TEME
TIME_SYSTEM    = UTC
MEAN_ELEMENT_THEORY = SGP/SGP4

EPOCH          = 2026-03-13T14:00:01.000224
MEAN_MOTION    = 15.82200632
ECCENTRICITY   = .00014188
INCLINATION    = 42.9995
RA_OF_ASC_NODE = 31.0311
ARG_OF_PERICENTER = 261.9520
MEAN_ANOMALY   = 42.8272

EPHEMERIS_TYPE = 0
CLASSIFICATION_TYPE = U
NORAD_CAT_ID   = 67990
ELEMENT_SET_NO = 999
REV_AT_EPOCH   = 350
BSTAR          = -.10712972E-1
MEAN_MOTION_DOT = -.197522E-1
MEAN_MOTION_DDOT = 0

CCSDS_OMM_VERS = 2.0
CREATION_DATE  = 
ORIGINATOR     = 

OBJECT_NAME    = STARLINK-36941
OBJECT_ID      = 2026-039F
CENTER_NAME    = EARTH
REF_FRAME      = TEME
TIME_SYSTEM    = UTC
MEAN_ELEMENT_THEORY = SGP/SGP4

EPOCH          = 2026-03-13T14:00:01.000224
MEAN_MOTION    = 15.69167047
ECCENTRICITY   = .00012845
INCLINATION    = 42.9996
RA_OF_ASC_NODE = 31.1979
ARG_OF_PERICENTER = 257.4442
MEAN_ANOMALY   = 340.3002

EPHEMERIS_TYPE = 0
CLASSIFICATION_TYPE = U
NORAD_CAT_ID   = 67991
ELEMENT_SET_NO = 999
REV_AT_EPOCH   = 350
BSTAR          = -.18621048E-1
MEAN_MOTION_DOT = -.1967935E-1
MEAN_MOTION_DDOT = 0

CCSDS_OMM_VERS = 2.0
CREATION_DATE  = 
ORIGINATOR     = 

OBJECT_NAME    = STARLINK-36950
OBJECT_ID      = 2026-039G
CENTER_NAME    = EARTH
REF_FRAME      = TEME
TIME_SYSTEM    = UTC
MEAN_ELEMENT_THEORY = SGP/SGP4

EPOCH          = 2026-03-13T14:00:01.000224
MEAN_MOTION    = 15.74656446
ECCENTRICITY   = .00014871
INCLINATION    = 42.9995
RA_OF_ASC_NODE = 31.0673
ARG_OF_PERICENTER = 260.9945
MEAN_ANOMALY   = 28.8668

EPHEMERIS_TYPE = 0
CLASSIFICATION_TYPE = U
NORAD_CAT_ID   = 67992
ELEMENT_SET_NO = 999
REV_AT_EPOCH   = 350
BSTAR          = -.14749444E-1
MEAN_MOTION_DOT = -.1932288E-1
MEAN_MOTION_DDOT = 0

