STARLINK-36874          
1 67981U 26038W   26072.58334491 -.01157930  00000+0 -83949-2 0  9996
2 67981  97.2737  83.1293 0001130  98.3227 253.0836 15.76026356  3821
STARLINK-36879          
1 67982U 26038X   26072.58334491 -.01760639  00000+0 -12590-1 0  9996
2 67982  97.2732  83.1320 0001355  94.3033 264.6737 15.76605907  3821
STARLINK-36867          
1 67983U 26038Y   26072.58334491 -.02294769  00000+0 -15982-1 0  9992
2 67983  97.2720  83.1390 0001221 112.1655 261.7637 15.77535168  3826
STARLINK-36266          
1 67984U 26038Z   26072.58334491 -.02123778  00000+0 -15018-1 0  9994
2 67984  97.2731  83.1369 0001265 124.2521 242.4591 15.76937238  3793
STARLINK-36802          
1 67985U 26038AA  26072.58334491 -.02252401  00000+0 -15541-1 0  9992
2 67985  97.2714  83.1417 0001256  96.5709 283.1070 15.77679026  3825
STARLINK-36535          
1 67986U 26039A   26072.34350081  .00333423  00000+0  15166-2 0  9995
2 67986  42.9987  32.5458 0002450 249.6833 110.3776 15.82144190  2215
STARLINK-36744          
1 67987U 26039B   26072.34275174  .00419567  00000+0  18866-2 0  9999
2 67987  42.9988  32.5398 0002461 225.2305 134.8367 15.82169129  2212
STARLINK-36734          
1 67988U 26039C   26072.58334491 -.01977825  00000+0 -18449-1 0  9999
2 67988  42.9996  31.2219 0001349 253.8351 334.8762 15.69523785  3503
STARLINK-36957          
1 67989U 26039D   26072.58334491 -.00004128  00000+0 -17110-4 0  9993
2 67989  42.9995  31.0418 0001777 254.5765  46.0020 15.81980286  3500
STARLINK-36951          
1 67990U 26039E   26072.58334491 -.01975220  00000+0 -10713-1 0  9995
2 67990  42.9995  31.0311 0001418 261.9520  42.8272 15.82200632  3501
STARLINK-36941          
1 67991U 26039F   26072.58334491 -.01967935  00000+0 -18621-1 0  9996
2 67991  42.9996  31.1979 0001284 257.4442 340.3002 15.69167047  3502
STARLINK-36950          
1 67992U 26039G   26072.58334491 -.01932288  00000+0 -14749-1 0  9997
2 67992  42.9995  31.0673 0001487 260.9945  28.8668 15.74656446  3502
